ONEWEB-0171             
1 48070U 21025AE  25300.60044146 -.00000284  00000+0 -81132-3 0  9997
2 48070  87.9022   6.4694 0001937 102.0829 258.0517 13.13470462223084
ONEWEB-0172             
1 48071U 21025AF  25300.65629799  .00000073  00000+0  16564-3 0  9997
2 48071  87.9041   6.4327 0002002 100.4339 259.7016 13.13468209223988
ONEWEB-0174             
1 48072U 21025AG  25300.63768376  .00000320  00000+0  84045-3 0  9995
2 48072  87.9030   6.4451 0001829  94.9315 265.2023 13.13468418223300
ONEWEB-0175             
1 48073U 21025AH  25300.43961772 -.00000269  00000+0 -77023-3 0  9991
2 48073  87.9037   6.4507 0002045 107.5897 252.5456 13.13470517222937
ONEWEB-0177             
1 48074U 21025AJ  25300.60381551 -.00000239  00000+0 -68799-3 0  9999
2 48074  87.9040   6.4366 0001930  95.1591 264.9759 13.13472227223147
ONEWEB-0178             
1 48075U 21025AK  25300.62258654  .00000081  00000+0  18784-3 0  9991
2 48075  87.9033   6.4783 0002128 100.7033 259.4336 13.13469541223197
ONEWEB-0108             
1 48076U 21025AL  25300.65798899 -.00000022  00000+0 -94936-4 0  9996
2 48076  87.9039   6.4166 0001579  99.0725 261.0583 13.13470890223121
ONEWEB-0169             
1 48077U 21025AM  25300.46162352 -.00000042  00000+0 -14901-3 0  9990
2 48077  87.9034   6.4782 0001638  98.3574 261.7741 13.13469477221750
